NORAD_CAT_ID,OBJECT_NAME,OBJECT_TYPE,EPOCH,MEAN_MOTION,ECCENTRICITY,INCLINATION,RA_OF_ASC_NODE,ARG_OF_PERICENTER,MEAN_ANOMALY,BSTAR,MEAN_MOTION_DOT,MEAN_MOTION_DDOT,TLE_LINE0,TLE_LINE1,TLE_LINE2,SEMIMAJOR_AXIS,PERIOD,APOGEE,PERIGEE,DECAYED
52630.0,STARLINK-3989,PAYLOAD,2023-02-16 06:04:15,15.08845863,0.0001163,53.2126,245.4929,81.5529,278.5595,0.0001233,1.675e-05,0.0,0 STARLINK-3989,1 52630U 22052AJ  23047.25295453  .00001675  00000-0  12330-3 0  9999,2 52630  53.2126 245.4929 0001163  81.5529 278.5595 15.08845863 42299,6917.862,95.437,540.532,538.923,0.0
52630.0,STARLINK-3989,PAYLOAD,2023-02-16 15:36:35,15.08831485,0.0001244,53.2123,243.7083,79.9891,280.1241,-8.385e-07,-3.01e-06,0.0,0 STARLINK-3989,1 52630U 22052AJ  23047.65040730 -.00000301  00000-0 -83850-6 0  9994,2 52630  53.2123 243.7083 0001244  79.9891 280.1241 15.08831485 42732,6917.906,95.438,540.632,538.911,0.0
52630.0,STARLINK-3989,PAYLOAD,2023-02-17 05:55:03,15.08837681,0.0001567,53.2119,241.0302,80.8935,279.2234,5.63e-05,6.08e-06,0.0,0 STARLINK-3989,1 52630U 22052AJ  23048.24656356  .00000608  00000-0  56300-4 0  9993,2 52630  53.2119 241.0302 0001567  80.8935 279.2234 15.08837681 42825,6917.887,95.438,540.837,538.668,0.0
52630.0,STARLINK-3989,PAYLOAD,2023-02-17 20:13:31,15.08838632,0.000104,53.2134,238.3542,75.5757,284.535,2.9008e-05,1.74e-06,0.0,0 STARLINK-3989,1 52630U 22052AJ  23048.84272329  .00000174  00000-0  29008-4 0  9996,2 52630  53.2134 238.3542 0001040  75.5757 284.5350 15.08838632 42539,6917.885,95.438,540.469,539.03,0.0
52630.0,STARLINK-3989,PAYLOAD,2023-02-18 12:07:22,15.08836082,0.0001204,53.2132,235.3803,78.2007,281.912,0.00014979,2.097e-05,0.0,0 STARLINK-3989,1 52630U 22052AJ  23049.50512323  .00002097  00000-0  14979-3 0  9997,2 52630  53.2132 235.3803 0001204  78.2007 281.9120 15.08836082 43011,6917.892,95.438,540.59,538.924,0.0
52630.0,STARLINK-3989,PAYLOAD,2023-02-19 05:36:35,15.08852933,0.0001155,53.2139,232.1098,84.3794,275.733,0.00025657,3.799e-05,0.0,0 STARLINK-3989,1 52630U 22052AJ  23050.23374863  .00003799  00000-0  25657-3 0  9999,2 52630  53.2139 232.1098 0001155  84.3794 275.7330 15.08852933 43124,6917.841,95.437,540.505,538.907,0.0
52630.0,STARLINK-3989,PAYLOAD,2023-02-19 18:19:40,15.08857058,9.1e-05,53.2151,229.7297,90.1618,269.9478,0.00026319,3.905e-05,0.0,0 STARLINK-3989,1 52630U 22052AJ  23050.76366079  .00003905  00000-0  26319-3 0  9992,2 52630  53.2151 229.7297 0000910  90.1618 269.9478 15.08857058 42826,6917.828,95.436,540.323,539.064,0.0
52630.0,STARLINK-3989,PAYLOAD,2023-02-20 18:10:28,15.08836906,0.0001223,53.2153,225.269,81.3454,278.7677,-3.7113e-05,-8.78e-06,0.0,0 STARLINK-3989,1 52630U 22052AJ  23051.75727980 -.00000878  00000-0 -37113-4 0  9997,2 52630  53.2153 225.2690 0001223  81.3454 278.7677 15.08836906 43351,6917.89,95.438,540.601,538.909,0.0
52630.0,STARLINK-3989,PAYLOAD,2023-02-21 14:50:29,15.08839399,0.0001276,53.215,221.4029,89.3189,270.7949,-0.00010126,-1.899e-05,0.0,0 STARLINK-3989,1 52630U 22052AJ  23052.61839898 -.00001899  00000-0 -10126-3 0  9993,2 52630  53.2150 221.4029 0001276  89.3189 270.7949 15.08839399 43109,6917.882,95.438,540.63,538.865,0.0
52630.0,STARLINK-3989,PAYLOAD,2023-02-21 18:01:15,15.08843293,0.0001291,53.2146,220.8084,88.8553,271.2587,-6.7628e-05,-1.364e-05,0.0,0 STARLINK-3989,1 52630U 22052AJ  23052.75087543 -.00001364  00000-0 -67628-4 0  9997,2 52630  53.2146 220.8084 0001291  88.8553 271.2587 15.08843293 43500,6917.87,95.437,540.628,538.842,0.0
52630.0,STARLINK-3989,PAYLOAD,2023-02-22 09:55:07,15.08829408,0.0001499,53.2144,217.8347,86.442,273.6744,0.00013324,1.833e-05,0.0,0 STARLINK-3989,1 52630U 22052AJ  23053.41328170  .00001833  00000-0  13324-3 0  9997,2 52630  53.2144 217.8347 0001499  86.4420 273.6744 15.08829408 43607,6917.913,95.438,540.815,538.741,0.0
52630.0,STARLINK-3989,PAYLOAD,2023-02-22 13:05:53,15.08831363,0.0001516,53.2144,217.2401,86.8005,273.3161,0.00014365,1.998e-05,0.0,0 STARLINK-3989,1 52630U 22052AJ  23053.54576087  .00001998  00000-0  14365-3 0  9991,2 52630  53.2144 217.2401 0001516  86.8005 273.3161 15.08831363 43248,6917.907,95.438,540.821,538.723,0.0
52630.0,STARLINK-3989,PAYLOAD,2023-02-22 17:52:02,15.08837738,0.0001491,53.2143,216.3481,86.8125,273.3038,0.00019268,2.78e-05,0.0,0 STARLINK-3989,1 52630U 22052AJ  23053.74447688  .00002780  00000-0  19268-3 0  9994,2 52630  53.2143 216.3481 0001491  86.8125 273.3038 15.08837738 43650,6917.887,95.438,540.784,538.721,0.0
52630.0,STARLINK-3989,PAYLOAD,2023-02-23 03:24:22,15.08833899,0.0001433,53.2147,214.5648,86.7663,273.3493,0.00011971,1.617e-05,0.0,0 STARLINK-3989,1 52630U 22052AJ  23054.14192250  .00001617  00000-0  11971-3 0  9992,2 52630  53.2147 214.5648 0001433  86.7663 273.3493 15.08833899 43717,6917.899,95.438,540.755,538.773,0.0
52630.0,STARLINK-3989,PAYLOAD,2023-02-23 11:21:18,15.08826256,0.0001528,53.215,213.0782,92.1611,267.9556,0.00011408,1.527e-05,0.0,0 STARLINK-3989,1 52630U 22052AJ  23054.47312945  .00001527  00000-0  11408-3 0  9998,2 52630  53.2150 213.0782 0001528  92.1611 267.9556 15.08826256 43766,6917.922,95.438,540.844,538.73,0.0
52630.0,STARLINK-3989,PAYLOAD,2023-02-23 12:56:41,15.08826936,0.0001525,53.2145,212.7805,91.5469,268.5698,7.9027e-05,9.7e-06,0.0,0 STARLINK-3989,1 52630U 22052AJ  23054.53936971  .00000970  00000-0  79027-4 0  9999,2 52630  53.2145 212.7805 0001525  91.5469 268.5698 15.08826936 43391,6917.92,95.438,540.84,538.73,0.0
52630.0,STARLINK-3989,PAYLOAD,2023-02-23 17:42:50,15.0883761,0.0001284,53.2146,211.888,92.3817,267.7322,8.9481e-05,1.136e-05,0.0,0 STARLINK-3989,1 52630U 22052AJ  23054.73808318  .00001136  00000-0  89481-4 0  9994,2 52630  53.2146 211.8880 0001284  92.3817 267.7322 15.08837610 43805,6917.888,95.438,540.641,538.864,0.0
52630.0,STARLINK-3989,PAYLOAD,2023-02-24 12:47:28,15.08832836,0.0001293,53.2149,208.3193,94.052,266.062,2.5814e-05,1.23e-06,0.0,0 STARLINK-3989,1 52630U 22052AJ  23055.53297122  .00000123  00000-0  25814-4 0  9993,2 52630  53.2149 208.3193 0001293  94.0520 266.0620 15.08832836 43545,6917.902,95.438,540.662,538.873,0.0
52630.0,STARLINK-3989,PAYLOAD,2023-02-24 19:09:00,15.08836504,0.0001381,53.2145,207.1303,90.1457,269.9693,9.2282e-05,1.181e-05,0.0,0 STARLINK-3989,1 52630U 22052AJ  23055.79792734  .00001181  00000-0  92282-4 0  9998,2 52630  53.2145 207.1303 0001381  90.1457 269.9693 15.08836504 43969,6917.891,95.438,540.711,538.801,0.0
52630.0,STARLINK-3989,PAYLOAD,2023-02-25 09:27:29,15.08828334,0.0001195,53.2148,204.4544,88.4026,271.7103,5.3965e-05,5.71e-06,0.0,0 STARLINK-3989,1 52630U 22052AJ  23056.39409563  .00000571  00000-0  53965-4 0  9997,2 52630  53.2148 204.4544 0001195  88.4026 271.7103 15.08828334 44054,6917.916,95.438,540.608,538.954,0.0
52630.0,STARLINK-3989,PAYLOAD,2023-02-25 17:24:25,15.08834972,0.0001272,53.2154,202.9673,83.3389,276.7747,1.8092e-05,0.0,0.0,0 STARLINK-3989,1 52630U 22052AJ  23056.72529467  .00000000  00000-0  18092-4 0  9999,2 52630  53.2154 202.9673 0001272  83.3389 276.7747 15.08834972 43726,6917.896,95.438,540.641,538.881,0.0
52630.0,STARLINK-3989,PAYLOAD,2023-02-26 02:56:43,15.08842886,0.0001321,53.2161,201.1838,87.2631,272.8512,0.00011919,1.61e-05,0.0,0 STARLINK-3989,1 52630U 22052AJ  23057.12272753  .00001610  00000-0  11919-3 0  9995,2 52630  53.2161 201.1838 0001321  87.2631 272.8512 15.08842886 44165,6917.872,95.437,540.65,538.823,0.0
52630.0,STARLINK-3989,PAYLOAD,2023-02-26 09:18:15,15.08844927,0.0001142,53.2161,199.9935,87.8739,272.2384,0.00017921,2.566e-05,0.0,0 STARLINK-3989,1 52630U 22052AJ  23057.38768437  .00002566  00000-0  17921-3 0  9992,2 52630  53.2161 199.9935 0001142  87.8739 272.2384 15.08844927 43824,6917.865,95.437,540.52,538.94,0.0
52630.0,STARLINK-3989,PAYLOAD,2023-02-26 15:39:47,15.08856489,0.0001346,53.2162,198.8049,72.6347,287.4792,0.00022062,3.227e-05,0.0,0 STARLINK-3989,1 52630U 22052AJ  23057.65263697  .00003227  00000-0  22062-3 0  9997,2 52630  53.2162 198.8049 0001346  72.6347 287.4792 15.08856489 44246,6917.83,95.437,540.626,538.764,0.0
52630.0,STARLINK-3989,PAYLOAD,2023-02-27 02:47:29,15.0885323,0.0001437,53.2167,196.726,70.6763,289.4384,0.00010222,1.34e-05,0.0,0 STARLINK-3989,1 52630U 22052AJ  23058.11631917  .00001340  00000-0  10222-3 0  9992,2 52630  53.2167 196.7260 0001437  70.6763 289.4384 15.08853230 44312,6917.84,95.437,540.699,538.711,0.0
52630.0,STARLINK-3989,PAYLOAD,2023-02-27 09:09:03,15.08844898,0.0001803,53.2168,195.5341,87.4813,272.6386,0.00015842,2.234e-05,0.0,0 STARLINK-3989,1 52630U 22052AJ  23058.38128555  .00002234  00000-0  15842-3 0  9996,2 52630  53.2168 195.5341 0001803  87.4813 272.6386 15.08844898 44359,6917.865,95.437,540.978,538.483,0.0
52630.0,STARLINK-3989,PAYLOAD,2023-02-27 15:30:35,15.0885764,0.0001192,53.2148,194.3415,85.0471,275.0657,0.00026944,4.005e-05,0.0,0 STARLINK-3989,1 52630U 22052AJ  23058.64623947  .00004005  00000-0  26944-3 0  9993,2 52630  53.2148 194.3415 0001192  85.0471 275.0657 15.08857640 44011,6917.826,95.436,540.516,538.867,0.0
52630.0,STARLINK-3989,PAYLOAD,2023-02-28 12:10:35,15.0884734,0.0001446,53.2148,190.4761,98.8657,261.2499,3.5087e-05,2.71e-06,0.0,0 STARLINK-3989,1 52630U 22052AJ  23059.50736021  .00000271  00000-0  35087-4 0  9997,2 52630  53.2148 190.4761 0001446  98.8657 261.2499 15.08847340 44525,6917.858,95.437,540.723,538.723,0.0
52630.0,STARLINK-3989,PAYLOAD,2023-02-28 13:45:59,15.08846875,0.0001364,53.2143,190.1806,71.571,288.5431,-1.4052e-05,-5.12e-06,0.0,0 STARLINK-3989,1 52630U 22052AJ  23059.57360058 -.00000512  00000-0 -14052-4 0  9996,2 52630  53.2143 190.1806 0001364  71.5710 288.5431 15.08846875 44153,6917.859,95.437,540.668,538.781,0.0
52630.0,STARLINK-3989,PAYLOAD,2023-02-28 15:21:21,15.08849982,0.000119,53.2147,189.8811,78.121,281.9915,-3.5492e-05,-8.53e-06,0.0,0 STARLINK-3989,1 52630U 22052AJ  23059.63983785 -.00000853  00000-0 -35492-4 0  9990,2 52630  53.2147 189.8811 0001190  78.1210 281.9915 15.08849982 44160,6917.85,95.437,540.538,538.892,0.0
